{"type": "FeatureCollection", "features": [ {"type": "Feature", "properties": {"norad_id": 54234, "name": "NOAA 21 (JPSS-2)", "group": "weather", "lat": -3.402699559539354, "lon": -86.58640348335602, "alt_km": 829.4054223665835, "timestamp": "2025-12-02T10:50:46.915586+00:00", "meta": {"OBJECT_NAME": "NOAA 21 (JPSS-2)", "OBJECT_ID": "2022-150A", "EPOCH": "2025-12-02T02:24:15.168384", "MEAN_MOTION": 14.19519242, "ECCENTRICITY": 0.0002563, "INCLINATION": 98.7446, "RA_OF_ASC_NODE": 272.542, "ARG_OF_PERICENTER": 57.8485, "MEAN_ANOMALY": 302.294, "EPHEMERIS_TYPE": 0, "CLASSIFICATION_TYPE": "U", "NORAD_CAT_ID": 54234, "ELEMENT_SET_NO": 999, "REV_AT_EPOCH": 15858, "BSTAR": 7.2477e-05, "MEAN_MOTION_DOT": 1.09e-06, "MEAN_MOTION_DDOT": 0}, "tle": {"line1": "1 54234U 22150A   25336.10017556  .00000109  00000+0  72477-4 0  9992", "line2": "2 54234  98.7446 272.5420 0002563  57.8485 302.2940 14.19519242158588"}}, "geometry": {"type": "Point", "coordinates": [-86.58640348335602, -3.402699559539354]}}, {"type": "Feature", "properties": {"norad_id": 54743, "name": "METEOSAT-12 (MTG-I1)", "group": "weather", "lat": -0.3157287489471171, "lon": -126.07669384383978, "alt_km": 35779.560893963, "timestamp": "2025-12-02T10:50:46.915599+00:00", "meta": {"OBJECT_NAME": "METEOSAT-12 (MTG-I1)", "OBJECT_ID": "2022-170C", "EPOCH": "2025-12-02T03:30:34.806816", "MEAN_MOTION": 1.00273493, "ECCENTRICITY": 0.0001451, "INCLINATION": 0.7153, "RA_OF_ASC_NODE": 29.7901, "ARG_OF_PERICENTER": 213.1409, "MEAN_ANOMALY": 240.6702, "EPHEMERIS_TYPE": 0, "CLASSIFICATION_TYPE": "U", "NORAD_CAT_ID": 54743, "ELEMENT_SET_NO": 999, "REV_AT_EPOCH": 1100, "BSTAR": 0, "MEAN_MOTION_DOT": 1.4e-07, "MEAN_MOTION_DDOT": 0}, "tle": {"line1": "1 54743U 22170C   25336.14623619  .00000014  00000+0  00000+0 0  9999", "line2": "2 54743   0.7153  29.7901 0001451 213.1409 240.6702  1.00273493 11002"}}, "geometry": {"type": "Point", "coordinates": [-126.07669384383978, -0.3157287489471171]}}, {"type": "Feature", "properties": {"norad_id": 55973, "name": "TIANMU-1 03", "group": "weather", "lat": 56.99631405916201, "lon": -29.460873986448096, "alt_km": 436.70125954580635, "timestamp": "2025-12-02T10:50:46.915610+00:00", "meta": {"OBJECT_NAME": "TIANMU-1 03", "OBJECT_ID": "2023-039A", "EPOCH": "2025-12-02T04:04:55.915968", "MEAN_MOTION": 15.40447037, "ECCENTRICITY": 0.0004525, "INCLINATION": 97.5103, "RA_OF_ASC_NODE": 138.53, "ARG_OF_PERICENTER": 91.6272, "MEAN_ANOMALY": 268.5492, "EPHEMERIS_TYPE": 0, "CLASSIFICATION_TYPE": "U", "NORAD_CAT_ID": 55973, "ELEMENT_SET_NO": 999, "REV_AT_EPOCH": 15043, "BSTAR": 0.00045274, "MEAN_MOTION_DOT": 0.00018271, "MEAN_MOTION_DDOT": 0}, "tle": {"line1": "1 55973U 23039A   25336.17009162  .00018271  00000+0  45274-3 0  9994", "line2": "2 55973  97.5103 138.5300 0004525  91.6272 268.5492 15.40447037150433"}}, "geometry": {"type": "Point", "coordinates": [-29.460873986448096, 56.99631405916201]}}, {"type": "Feature", "properties": {"norad_id": 55974, "name": "TIANMU-1 04", "group": "weather", "lat": -43.46548529056231, "lon": -49.161948953893585, "alt_km": 453.14917556506134, "timestamp": "2025-12-02T10:50:46.915621+00:00", "meta": {"OBJECT_NAME": "TIANMU-1 04", "OBJECT_ID": "2023-039B", "EPOCH": "2025-12-02T05:12:07.966368", "MEAN_MOTION": 15.40777706, "ECCENTRICITY": 0.0005251, "INCLINATION": 97.5035, "RA_OF_ASC_NODE": 137.7734, "ARG_OF_PERICENTER": 87.5614, "MEAN_ANOMALY": 272.6233, "EPHEMERIS_TYPE": 0, "CLASSIFICATION_TYPE": "U", "NORAD_CAT_ID": 55974, "ELEMENT_SET_NO": 999, "REV_AT_EPOCH": 15044, "BSTAR": 0.0004837, "MEAN_MOTION_DOT": 0.00019747, "MEAN_MOTION_DDOT": 0}, "tle": {"line1": "1 55974U 23039B   25336.21675887  .00019747  00000+0  48370-3 0  9992", "line2": "2 55974  97.5035 137.7734 0005251  87.5614 272.6233 15.40777706150440"}}, "geometry": {"type": "Point", "coordinates": [-49.161948953893585, -43.46548529056231]}}, {"type": "Feature", "properties": {"norad_id": 55975, "name": "TIANMU-1 05", "group": "weather", "lat": -82.47466772755237, "lon": -128.2304043918662, "alt_km": 455.05889164351265, "timestamp": "2025-12-02T10:50:46.915631+00:00", "meta": {"OBJECT_NAME": "TIANMU-1 05", "OBJECT_ID": "2023-039C", "EPOCH": "2025-12-02T05:00:09.508032", "MEAN_MOTION": 15.40406852, "ECCENTRICITY": 0.0004324, "INCLINATION": 97.508, "RA_OF_ASC_NODE": 138.2566, "ARG_OF_PERICENTER": 108.2037, "MEAN_ANOMALY": 251.968, "EPHEMERIS_TYPE": 0, "CLASSIFICATION_TYPE": "U", "NORAD_CAT_ID": 55975, "ELEMENT_SET_NO": 999, "REV_AT_EPOCH": 15042, "BSTAR": 0.00047182, "MEAN_MOTION_DOT": 0.0001902, "MEAN_MOTION_DDOT": 0}, "tle": {"line1": "1 55975U 23039C   25336.20844338  .00019020  00000+0  47182-3 0  9995", "line2": "2 55975  97.5080 138.2566 0004324 108.2037 251.9680 15.40406852150425"}}, "geometry": {"type": "Point", "coordinates": [-128.2304043918662, -82.47466772755237]}}, {"type": "Feature", "properties": {"norad_id": 55976, "name": "TIANMU-1 06", "group": "weather", "lat": -29.67616999219506, "lon": -45.347518928388496, "alt_km": 450.5894322970962, "timestamp": "2025-12-02T10:50:46.915641+00:00", "meta": {"OBJECT_NAME": "TIANMU-1 06", "OBJECT_ID": "2023-039D", "EPOCH": "2025-12-02T03:42:15.806304", "MEAN_MOTION": 15.40828052, "ECCENTRICITY": 0.0004659, "INCLINATION": 97.5092, "RA_OF_ASC_NODE": 138.6576, "ARG_OF_PERICENTER": 103.8992, "MEAN_ANOMALY": 256.2772, "EPHEMERIS_TYPE": 0, "CLASSIFICATION_TYPE": "U", "NORAD_CAT_ID": 55976, "ELEMENT_SET_NO": 999, "REV_AT_EPOCH": 15043, "BSTAR": 0.00047113, "MEAN_MOTION_DOT": 0.0001926, "MEAN_MOTION_DDOT": 0}, "tle": {"line1": "1 55976U 23039D   25336.15434961  .00019260  00000+0  47113-3 0  9997", "line2": "2 55976  97.5092 138.6576 0004659 103.8992 256.2772 15.40828052150437"}}, "geometry": {"type": "Point", "coordinates": [-45.347518928388496, -29.67616999219506]}}, {"type": "Feature", "properties": {"norad_id": 56232, "name": "FENGYUN 3G", "group": "weather", "lat": 41.6472233959579, "lon": 52.18340136419335, "alt_km": 397.1552718917028, "timestamp": "2025-12-02T10:50:46.915651+00:00", "meta": {"OBJECT_NAME": "FENGYUN 3G", "OBJECT_ID": "2023-055A", "EPOCH": "2025-12-02T04:09:19.912032", "MEAN_MOTION": 15.52680373, "ECCENTRICITY": 0.0009233, "INCLINATION": 49.9948, "RA_OF_ASC_NODE": 281.9431, "ARG_OF_PERICENTER": 97.5762, "MEAN_ANOMALY": 262.6254, "EPHEMERIS_TYPE": 0, "CLASSIFICATION_TYPE": "U", "NORAD_CAT_ID": 56232, "ELEMENT_SET_NO": 999, "REV_AT_EPOCH": 14938, "BSTAR": 0.000607, "MEAN_MOTION_DOT": 0.00037954, "MEAN_MOTION_DDOT": 0}, "tle": {"line1": "1 56232U 23055A   25336.17314713  .00037954  00000+0  60700-3 0  9992", "line2": "2 56232  49.9948 281.9431 0009233  97.5762 262.6254 15.52680373149386"}}, "geometry": {"type": "Point", "coordinates": [52.18340136419335, 41.6472233959579]}}, {"type": "Feature", "properties": {"norad_id": 57166, "name": "METEOR-M2 3", "group": "weather", "lat": 78.97787611939509, "lon": -98.51959982742629, "alt_km": 802.8345564544534, "timestamp": "2025-12-02T10:50:46.915661+00:00", "meta": {"OBJECT_NAME": "METEOR-M2 3", "OBJECT_ID": "2023-091A", "EPOCH": "2025-12-02T05:20:04.684416", "MEAN_MOTION": 14.24023955, "ECCENTRICITY": 0.000446, "INCLINATION": 98.6393, "RA_OF_ASC_NODE": 29.9446, "ARG_OF_PERICENTER": 36.8876, "MEAN_ANOMALY": 323.2609, "EPHEMERIS_TYPE": 0, "CLASSIFICATION_TYPE": "U", "NORAD_CAT_ID": 57166, "ELEMENT_SET_NO": 999, "REV_AT_EPOCH": 12648, "BSTAR": 3.2462e-05, "MEAN_MOTION_DOT": 3.1e-07, "MEAN_MOTION_DDOT": 0}, "tle": {"line1": "1 57166U 23091A   25336.22227644  .00000031  00000+0  32462-4 0  9992", "line2": "2 57166  98.6393  29.9446 0004460  36.8876 323.2609 14.24023955126482"}}, "geometry": {"type": "Point", "coordinates": [-98.51959982742629, 78.97787611939509]}}, {"type": "Feature", "properties": {"norad_id": 57399, "name": "TIANMU-1 07", "group": "weather", "lat": 40.70732595226048, "lon": 20.2069628207555, "alt_km": 477.6131646131871, "timestamp": "2025-12-02T10:50:46.915705+00:00", "meta": {"OBJECT_NAME": "TIANMU-1 07", "OBJECT_ID": "2023-101A", "EPOCH": "2025-12-02T04:22:46.437888", "MEAN_MOTION": 15.27829747, "ECCENTRICITY": 0.0005568, "INCLINATION": 97.2899, "RA_OF_ASC_NODE": 26.2667, "ARG_OF_PERICENTER": 108.478, "MEAN_ANOMALY": 251.7065, "EPHEMERIS_TYPE": 0, "CLASSIFICATION_TYPE": "U", "NORAD_CAT_ID": 57399, "ELEMENT_SET_NO": 999, "REV_AT_EPOCH": 13154, "BSTAR": 0.00033183, "MEAN_MOTION_DOT": 8.951e-05, "MEAN_MOTION_DDOT": 0}, "tle": {"line1": "1 57399U 23101A   25336.18248192  .00008951  00000+0  33183-3 0  9997", "line2": "2 57399  97.2899  26.2667 0005568 108.4780 251.7065 15.27829747131542"}}, "geometry": {"type": "Point", "coordinates": [20.2069628207555, 40.70732595226048]}}, {"type": "Feature", "properties": {"norad_id": 57400, "name": "TIANMU-1 08", "group": "weather", "lat": -43.303717696451855, "lon": -160.59843908995944, "alt_km": 490.8903474987401, "timestamp": "2025-12-02T10:50:46.915719+00:00", "meta": {"OBJECT_NAME": "TIANMU-1 08", "OBJECT_ID": "2023-101B", "EPOCH": "2025-12-02T03:35:00.718368", "MEAN_MOTION": 15.27814278, "ECCENTRICITY": 0.0007433, "INCLINATION": 97.2888, "RA_OF_ASC_NODE": 26.0342, "ARG_OF_PERICENTER": 113.6615, "MEAN_ANOMALY": 246.5405, "EPHEMERIS_TYPE": 0, "CLASSIFICATION_TYPE": "U", "NORAD_CAT_ID": 57400, "ELEMENT_SET_NO": 999, "REV_AT_EPOCH": 13153, "BSTAR": 0.00033553, "MEAN_MOTION_DOT": 9.05e-05, "MEAN_MOTION_DDOT": 0}, "tle": {"line1": "1 57400U 23101B   25336.14931387  .00009050  00000+0  33553-3 0  9993", "line2": "2 57400  97.2888  26.0342 0007433 113.6615 246.5405 15.27814278131531"}}, "geometry": {"type": "Point", "coordinates": [-160.59843908995944, -43.303717696451855]}}]}